{
  "norad_id": 53481,
  "name": "STARLINK-4302",
  "history": [
    {
      "epoch": "2026-03-28T22:00:01.999584Z",
      "apogee_km": 536.5145477228907,
      "perigee_km": 534.1100500567363,
      "latitude_deg": -26.075379380585122,
      "longitude_deg": 56.52137389220253,
      "height_km": 545.5413577651794,
      "semi_major_axis_km": 6913.449298889813,
      "eccentricity": 0.0001739,
      "inclination_deg": 97.6045,
      "raan_deg": 209.1345,
      "arg_perigee_deg": 82.7393,
      "mean_anomaly_deg": 251.2115,
      "mean_motion_rev_day": 15.10290841
    },
    {
      "epoch": "2026-03-29T04:00:01.999584Z",
      "apogee_km": 536.638985911176,
      "perigee_km": 534.2800667763877,
      "latitude_deg": -70.97886007195346,
      "longitude_deg": 120.14711646998498,
      "height_km": 563.0378172350497,
      "semi_major_axis_km": 6913.596526343782,
      "eccentricity": 0.0001706,
      "inclination_deg": 97.6043,
      "raan_deg": 209.3849,
      "arg_perigee_deg": 76.4988,
      "mean_anomaly_deg": 175.8548,
      "mean_motion_rev_day": 15.10242598
    },
    {
      "epoch": "2026-03-30T00:00:01.999296Z",
      "apogee_km": 536.4159802336899,
      "perigee_km": 534.1912350461507,
      "latitude_deg": 77.29841700427994,
      "longitude_deg": -121.1014563589653,
      "height_km": 547.3129953539787,
      "semi_major_axis_km": 6913.44060763992,
      "eccentricity": 0.0001609,
      "inclination_deg": 97.6044,
      "raan_deg": 210.2122,
      "arg_perigee_deg": 87.2232,
      "mean_anomaly_deg": 13.0482,
      "mean_motion_rev_day": 15.10293689
    },
    {
      "epoch": "2026-03-30T05:55:10.109856Z",
      "apogee_km": 536.9293422931614,
      "perigee_km": 534.4410576833852,
      "latitude_deg": -3.402477400648892e-05,
      "longitude_deg": -65.97734920630761,
      "height_km": 538.26060517136,
      "semi_major_axis_km": 6913.8221999882735,
      "eccentricity": 0.00017995,
      "inclination_deg": 97.6038,
      "raan_deg": 210.4559,
      "arg_perigee_deg": 66.6496,
      "mean_anomaly_deg": 293.4922,
      "mean_motion_rev_day": 15.10168655
    },
    {
      "epoch": "2026-03-30T13:52:10.567776Z",
      "apogee_km": 536.5228922804508,
      "perigee_km": 534.3958552201029,
      "latitude_deg": -2.771332141665753e-05,
      "longitude_deg": 174.7743422165107,
      "height_km": 538.2292578320912,
      "semi_major_axis_km": 6913.596373750277,
      "eccentricity": 0.00015383,
      "inclination_deg": 97.6045,
      "raan_deg": 210.786,
      "arg_perigee_deg": 73.6682,
      "mean_anomaly_deg": 286.4716,
      "mean_motion_rev_day": 15.10242648
    },
    {
      "epoch": "2026-03-30T21:49:11.478432Z",
      "apogee_km": 536.4976802007232,
      "perigee_km": 534.2129092671594,
      "latitude_deg": -7.62905155998149e-06,
      "longitude_deg": 55.52314024537262,
      "height_km": 538.2412507398359,
      "semi_major_axis_km": 6913.492294733941,
      "eccentricity": 0.00016524,
      "inclination_deg": 97.604,
      "raan_deg": 211.1151,
      "arg_perigee_deg": 80.7917,
      "mean_anomaly_deg": 279.3499,
      "mean_motion_rev_day": 15.10276752
    },
    {
      "epoch": "2026-03-31T13:43:16.872384Z",
      "apogee_km": 536.3557520771947,
      "perigee_km": 534.4502421831849,
      "latitude_deg": 5.1045191828979374e-05,
      "longitude_deg": 177.00590723007628,
      "height_km": 538.2215051488827,
      "semi_major_axis_km": 6913.5399971301895,
      "eccentricity": 0.00013781,
      "inclination_deg": 97.6063,
      "raan_deg": 211.7734,
      "arg_perigee_deg": 74.7469,
      "mean_anomaly_deg": 285.3913,
      "mean_motion_rev_day": 15.10261121
    },
    {
      "epoch": "2026-04-01T07:12:45.692640Z",
      "apogee_km": 536.4521357282501,
      "perigee_km": 534.3075628016086,
      "latitude_deg": 3.7421543419676003e-06,
      "longitude_deg": -85.35891368172278,
      "height_km": 538.1985214695352,
      "semi_major_axis_km": 6913.516849264929,
      "eccentricity": 0.0001551,
      "inclination_deg": 97.6058,
      "raan_deg": 212.497,
      "arg_perigee_deg": 76.5054,
      "mean_anomaly_deg": 283.6348,
      "mean_motion_rev_day": 15.10268706
    },
    {
      "epoch": "2026-04-02T13:24:56.647872Z",
      "apogee_km": 535.4863712616989,
      "perigee_km": 533.0066228059741,
      "latitude_deg": 4.850250433684397e-06,
      "longitude_deg": -178.39505428150838,
      "height_km": 537.3209088353569,
      "semi_major_axis_km": 6912.383497033837,
      "eccentricity": 0.00017937,
      "inclination_deg": 97.6053,
      "raan_deg": 213.7469,
      "arg_perigee_deg": 90.251,
      "mean_anomaly_deg": 269.8925,
      "mean_motion_rev_day": 15.10640156
    },
    {
      "epoch": "2026-04-02T21:21:51.412896Z",
      "apogee_km": 534.330964857686,
      "perigee_km": 532.98302679262,
      "latitude_deg": -3.468556760349532e-07,
      "longitude_deg": 62.38032386158124,
      "height_km": 536.7734801275674,
      "semi_major_axis_km": 6911.793995825153,
      "eccentricity": 9.751e-05,
      "inclination_deg": 97.6059,
      "raan_deg": 214.0769,
      "arg_perigee_deg": 93.9031,
      "mean_anomaly_deg": 266.231,
      "mean_motion_rev_day": 15.10833422
    },
    {
      "epoch": "2026-04-03T20:00:01.999008Z",
      "apogee_km": 531.2731609380307,
      "perigee_km": 528.6798551271158,
      "latitude_deg": 82.39813928623069,
      "longitude_deg": -1.4726004893018103,
      "height_km": 542.2193226105475,
      "semi_major_axis_km": 6908.113508032573,
      "eccentricity": 0.0001877,
      "inclination_deg": 97.6061,
      "raan_deg": 215.0108,
      "arg_perigee_deg": 90.135,
      "mean_anomaly_deg": 359.1111,
      "mean_motion_rev_day": 15.1204099
    },
    {
      "epoch": "2026-04-04T06:00:02.000160Z",
      "apogee_km": 530.877510506094,
      "perigee_km": 528.7665763815985,
      "latitude_deg": -16.012317523018723,
      "longitude_deg": 110.66523010299238,
      "height_km": 536.6202893591371,
      "semi_major_axis_km": 6907.959043443846,
      "eccentricity": 0.00015279,
      "inclination_deg": 97.6043,
      "raan_deg": 215.4299,
      "arg_perigee_deg": 89.6432,
      "mean_anomaly_deg": 106.282,
      "mean_motion_rev_day": 15.12091705
    },
    {
      "epoch": "2026-04-05T14:00:03.000384Z",
      "apogee_km": 529.364862376392,
      "perigee_km": 526.2817654538467,
      "latitude_deg": -69.0773205121524,
      "longitude_deg": -27.46818910966085,
      "height_km": 555.0274160539662,
      "semi_major_axis_km": 6905.960313915119,
      "eccentricity": 0.00022322,
      "inclination_deg": 97.6038,
      "raan_deg": 216.7514,
      "arg_perigee_deg": 104.3055,
      "mean_anomaly_deg": 145.9591,
      "mean_motion_rev_day": 15.12748199
    },
    {
      "epoch": "2026-04-05T20:00:03.000384Z",
      "apogee_km": 528.7181483633176,
      "perigee_km": 525.5734825691543,
      "latitude_deg": 9.088762831213625,
      "longitude_deg": -95.9286028599191,
      "height_km": 529.473018246011,
      "semi_major_axis_km": 6905.282815466236,
      "eccentricity": 0.0002277,
      "inclination_deg": 97.604,
      "raan_deg": 217.0002,
      "arg_perigee_deg": 81.6352,
      "mean_anomaly_deg": 89.1048,
      "mean_motion_rev_day": 15.12970835
    },
    {
      "epoch": "2026-04-06T06:00:02.000160Z",
      "apogee_km": 527.8555820870379,
      "perigee_km": 524.6917049537524,
      "latitude_deg": -78.59707199248749,
      "longitude_deg": -25.957062968222395,
      "height_km": 555.6074009596589,
      "semi_major_axis_km": 6904.410643520395,
      "eccentricity": 0.00022912,
      "inclination_deg": 97.6047,
      "raan_deg": 217.4211,
      "arg_perigee_deg": 74.0317,
      "mean_anomaly_deg": 204.6093,
      "mean_motion_rev_day": 15.13257524
    },
    {
      "epoch": "2026-04-07T14:00:01.999872Z",
      "apogee_km": 525.9386844193941,
      "perigee_km": 523.0775380207933,
      "latitude_deg": -21.47464533723458,
      "longitude_deg": 175.86872434216525,
      "height_km": 533.5376138561627,
      "semi_major_axis_km": 6902.645111220093,
      "eccentricity": 0.00020725,
      "inclination_deg": 97.6007,
      "raan_deg": 218.7426,
      "arg_perigee_deg": 102.769,
      "mean_anomaly_deg": 235.8167,
      "mean_motion_rev_day": 15.13838144
    }
  ]
}